OBJECT_NAME,OBJECT_ID,EPOCH,MEAN_MOTION,ECCENTRICITY,INCLINATION,RA_OF_ASC_NODE,ARG_OF_PERICENTER,MEAN_ANOMALY,EPHEMERIS_TYPE,CLASSIFICATION_TYPE,NORAD_CAT_ID,ELEMENT_SET_NO,REV_AT_EPOCH,BSTAR,MEAN_MOTION_DOT,MEAN_MOTION_DDOT
METEOR-M2 4,2024-039A,2026-05-09T23:42:13.766112,14.22425596,.00059546,98.6989,89.7715,283.5517,76.4997,0,U,59051,999,11383,.29801655E-4,.23E-6,0
GRBBETA,2024-128C,2026-05-09T22:06:49.423104,15.06325073,.00456614,61.9911,350.4896,126.7212,233.8088,0,U,60237,999,10050,.189843E-3,.2648E-4,0
TRANSPORTER-11 OBJECT A,2024-149A,2026-05-09T22:59:07.668960,15.32291420,.00033289,97.3728,210.0254,27.1349,333.0066,0,U,60468,999,9620,.20276457E-3,.6244E-4,0
WARATAH SEED-1,2024-149B,2026-05-09T17:24:50.666688,15.34988993,.00020899,97.3685,210.2943,50.1304,310.0123,0,U,60469,999,9621,.28015771E-3,.9431E-4,0
PHISAT 2,2024-149C,2026-05-09T22:29:19.366944,15.30514222,.00024875,97.3753,209.3827,60.3676,299.7813,0,U,60470,999,9614,.18543127E-3,.5394E-4,0
LEMUR-2-TOMATOKECHUP,2024-149D,2026-05-09T18:59:37.354848,15.35244617,.00022142,97.3795,211.7658,55.9690,304.1764,0,U,60471,999,9627,.22908266E-3,.7759E-4,0
CONNECTA IOT-1,2024-149E,2026-05-09T22:22:49.216512,15.23244300,.00033641,97.3760,206.8776,72.6562,287.5043,0,U,60472,999,9597,.12684126E-3,.2934E-4,0
LOPEN,2024-149F,2026-05-09T23:11:32.429184,15.38596116,.00022992,97.3771,213.0700,71.6689,288.4807,0,U,60473,999,9638,.2861964E-3,.10827E-3,0
ROCK,2024-149G,2026-05-09T16:37:36.384672,15.38595896,.00023975,97.3767,212.8123,64.4079,295.7414,0,U,60474,999,9634,.28263644E-3,.10692E-3,0
CONNECTA IOT-3,2024-149H,2026-05-09T22:54:00.965376,15.23254519,.00041717,97.3736,206.6636,60.1137,300.0514,0,U,60475,999,9598,.12693556E-3,.2937E-4,0
QUBE,2024-149J,2026-05-09T19:08:58.750080,15.45467069,.00020136,97.3766,215.5473,50.2514,309.8912,0,U,60476,999,9653,.38844809E-3,.18537E-3,0
WREN-1,2024-149L,2026-05-09T22:43:06.591648,15.40089070,.00048386,97.3759,213.7043,56.5167,303.6541,0,U,60478,999,9643,.35022043E-3,.13943E-3,0
TOMORROW-S1,2024-149M,2026-05-09T22:29:21.120000,15.32188026,.00034236,97.3746,210.5465,53.2021,306.9535,0,U,60479,999,9623,.16844979E-3,.5157E-4,0
FLOCK 4BE-18,2024-149N,2026-05-09T18:34:39.878688,15.40643131,.00040996,97.3721,213.1407,55.8822,304.2813,0,U,60480,999,9639,.321943E-3,.13044E-3,0
FLOCK 4BE-7,2024-149P,2026-05-09T17:43:45.150528,15.38767063,.00033598,97.3751,212.5295,63.1898,296.9691,0,U,60481,999,9633,.4336278E-3,.16553E-3,0
FLOCK 4BE-26,2024-149S,2026-05-09T18:33:55.673856,15.59451020,.00011004,97.3668,214.1450,253.6478,106.4658,0,U,60484,999,9646,.15709715E-2,.125901E-2,0
TOMORROW-S2,2024-149T,2026-05-09T20:05:56.601888,15.32195514,.00041246,97.3812,210.9002,68.3343,291.8338,0,U,60485,999,9621,.1787471E-3,.5479E-4,0
FLOCK 4BE-36,2024-149U,2026-05-09T23:05:42.482400,15.41539445,.00043939,97.3736,213.9703,64.8496,295.3206,0,U,60486,999,9646,.29835753E-3,.12447E-3,0
FLOCK 4BE-25,2024-149V,2026-05-09T20:08:09.355488,15.37846772,.00030046,97.3791,212.7601,68.6622,291.4944,0,U,60487,999,9634,.2660361E-3,.9816E-4,0
FLOCK 4BE-31,2024-149W,2026-05-09T18:20:17.990304,15.42641416,.00034531,97.3792,214.5269,73.0775,287.0850,0,U,60488,999,9645,.3251806E-3,.14083E-3,0
FLOCK 4BE-20,2024-149X,2026-05-09T04:43:50.835360,15.37054023,.00045373,97.3690,211.0933,65.8463,294.3255,0,U,60489,999,9622,.29155849E-3,.10495E-3,0
FLOCK 4BE-23,2024-149Y,2026-05-09T23:01:38.377344,15.36703824,.00044246,97.3775,212.2127,70.6801,289.4921,0,U,60490,999,9632,.27763297E-3,.9876E-4,0
FLOCK 4BE-15,2024-149Z,2026-05-09T18:00:41.710464,15.51724220,.00040596,97.3689,213.9336,148.8654,211.2840,0,U,60491,999,9645,.13494003E-2,.8101E-3,0
FLOCK 4BE-17,2024-149AA,2026-05-09T19:10:29.359488,15.38675078,.00036417,97.3768,212.9003,62.5396,297.6219,0,U,60492,999,9635,.30201685E-3,.11462E-3,0
NUSAT-50 (NANCY ROMAN),2024-149AB,2026-05-09T23:04:21.505728,15.29197087,.00026987,97.3783,211.5040,1.9042,358.2208,0,U,60493,999,9628,.23296637E-3,.6526E-4,0
FLOCK 4BE-22,2024-149AC,2026-05-09T17:59:07.330560,15.40019250,.00043911,97.3726,212.9833,67.0397,293.1312,0,U,60494,999,9638,.30487601E-3,.12096E-3,0
FLOCK 4BE-34,2024-149AD,2026-05-09T23:05:13.248096,15.40066351,.00046986,97.3774,213.9944,75.3643,284.8124,0,U,60495,999,9644,.28093239E-3,.11155E-3,0
TYCHE,2024-149AE,2026-05-09T21:40:33.721248,15.25808288,.00039022,97.3752,208.2337,72.0100,288.1563,0,U,60496,999,9606,.12895069E-3,.3224E-4,0
FLOCK 4BE-32,2024-149AF,2026-05-09T22:51:50.205024,15.40864062,.0004575,97.3714,213.5076,72.4201,287.7545,0,U,60497,999,9644,.29757525E-3,.12138E-3,0
NUSAT-48 (HENRIETTA LEAVITT),2024-149AG,2026-05-09T18:22:03.427680,15.29808438,.00046105,97.3891,211.4636,63.9587,296.2128,0,U,60498,999,9626,.24645617E-3,.7041E-4,0
