METEOR-M2 4             
1 59051U 24039A   26129.98765933  .00000023  00000+0  29802-4 0  9997
2 59051  98.6989  89.7715 0005954 283.5517  76.4997 14.22425596113830
GRBBETA                 
1 60237U 24128C   26129.92140536  .00002648  00000+0  18984-3 0  9997
2 60237  61.9911 350.4896 0045661 126.7212 233.8088 15.06325073100505
TRANSPORTER-11 OBJECT A 
1 60468U 24149A   26129.95772765  .00006244  00000+0  20276-3 0  9997
2 60468  97.3728 210.0254 0003328  27.1349 333.0066 15.32291420 96205
WARATAH SEED-1          
1 60469U 24149B   26129.72558642  .00009431  00000+0  28016-3 0  9990
2 60469  97.3685 210.2943 0002089  50.1304 310.0123 15.34988993 96215
PHISAT 2                
1 60470U 24149C   26129.93702971  .00005394  00000+0  18543-3 0  9999
2 60470  97.3753 209.3827 0002487  60.3676 299.7813 15.30514222 96147
LEMUR-2-TOMATOKECHUP    
1 60471U 24149D   26129.79140457  .00007759  00000+0  22908-3 0  9996
2 60471  97.3795 211.7658 0002214  55.9690 304.1764 15.35244617 96270
CONNECTA IOT-1          
1 60472U 24149E   26129.93251408  .00002934  00000+0  12684-3 0  9992
2 60472  97.3760 206.8776 0003364  72.6562 287.5043 15.23244300 95976
LOPEN                   
1 60473U 24149F   26129.96634756  .00010827  00000+0  28620-3 0  9994
2 60473  97.3771 213.0700 0002299  71.6689 288.4807 15.38596116 96386
ROCK                    
1 60474U 24149G   26129.69278223  .00010692  00000+0  28264-3 0  9992
2 60474  97.3767 212.8123 0002397  64.4079 295.7414 15.38595896 96345
CONNECTA IOT-3          
1 60475U 24149H   26129.95417784  .00002937  00000+0  12694-3 0  9992
2 60475  97.3736 206.6636 0004171  60.1137 300.0514 15.23254519 95980
QUBE                    
1 60476U 24149J   26129.79790220  .00018537  00000+0  38845-3 0  9993
2 60476  97.3766 215.5473 0002013  50.2514 309.8912 15.45467069 96535
WREN-1                  
1 60478U 24149L   26129.94660407  .00013943  00000+0  35022-3 0  9995
2 60478  97.3759 213.7043 0004838  56.5167 303.6541 15.40089070 96438
TOMORROW-S1             
1 60479U 24149M   26129.93705000  .00005157  00000+0  16845-3 0  9994
2 60479  97.3746 210.5465 0003423  53.2021 306.9535 15.32188026 96239
FLOCK 4BE-18            
1 60480U 24149N   26129.77407267  .00013044  00000+0  32194-3 0  9991
2 60480  97.3721 213.1407 0004099  55.8822 304.2813 15.40643131 96395
FLOCK 4BE-7             
1 60481U 24149P   26129.73871702  .00016553  00000+0  43363-3 0  9995
2 60481  97.3751 212.5295 0003359  63.1898 296.9691 15.38767063 96333
FLOCK 4BE-26            
1 60484U 24149S   26129.77356104  .00125901  00000+0  15710-2 0  9998
2 60484  97.3668 214.1450 0001100 253.6478 106.4658 15.59451020 96464
TOMORROW-S2             
1 60485U 24149T   26129.83746067  .00005479  00000+0  17875-3 0  9999
2 60485  97.3812 210.9002 0004124  68.3343 291.8338 15.32195514 96215
FLOCK 4BE-36            
1 60486U 24149U   26129.96229725  .00012447  00000+0  29836-3 0  9994
2 60486  97.3736 213.9703 0004393  64.8496 295.3206 15.41539445 96465
FLOCK 4BE-25            
1 60487U 24149V   26129.83899717  .00009816  00000+0  26604-3 0  9991
2 60487  97.3791 212.7601 0003004  68.6622 291.4944 15.37846772 96344
FLOCK 4BE-31            
1 60488U 24149W   26129.76409711  .00014083  00000+0  32518-3 0  9998
2 60488  97.3792 214.5269 0003453  73.0775 287.0850 15.42641416 96456
FLOCK 4BE-20            
1 60489U 24149X   26129.19711615  .00010495  00000+0  29156-3 0  9992
2 60489  97.3690 211.0933 0004537  65.8463 294.3255 15.37054023 96222
FLOCK 4BE-23            
1 60490U 24149Y   26129.95947196  .00009876  00000+0  27763-3 0  9996
2 60490  97.3775 212.2127 0004424  70.6801 289.4921 15.36703824 96326
FLOCK 4BE-15            
1 60491U 24149Z   26129.75048276  .00081010  00000+0  13494-2 0  9991
2 60491  97.3689 213.9336 0004059 148.8654 211.2840 15.51724220 96456
FLOCK 4BE-17            
1 60492U 24149AA  26129.79895092  .00011462  00000+0  30202-3 0  9993
2 60492  97.3768 212.9003 0003641  62.5396 297.6219 15.38675078 96354
NUSAT-50 (NANCY ROMAN)  
1 60493U 24149AB  26129.96136002  .00006526  00000+0  23297-3 0  9993
2 60493  97.3783 211.5040 0002698   1.9042 358.2208 15.29197087 96287
FLOCK 4BE-22            
1 60494U 24149AC  26129.74939040  .00012096  00000+0  30488-3 0  9992
2 60494  97.3726 212.9833 0004391  67.0397 293.1312 15.40019250 96380
FLOCK 4BE-34            
1 60495U 24149AD  26129.96195889  .00011155  00000+0  28093-3 0  9996
2 60495  97.3774 213.9944 0004698  75.3643 284.8124 15.40066351 96443
TYCHE                   
1 60496U 24149AE  26129.90316807  .00003224  00000+0  12895-3 0  9997
2 60496  97.3752 208.2337 0003902  72.0100 288.1563 15.25808288 96060
FLOCK 4BE-32            
1 60497U 24149AF  26129.95266441  .00012138  00000+0  29758-3 0  9991
2 60497  97.3714 213.5076 0004575  72.4201 287.7545 15.40864062 96447
NUSAT-48 (HENRIETTA LE*)
1 60498U 24149AG  26129.76531745  .00007041  00000+0  24646-3 0  9991
2 60498  97.3891 211.4636 0004610  63.9587 296.2128 15.29808438 96269
